COSMOS 2251 DEB         
1 34037U 93036HY  26088.06239333  .00001577  00000+0  55349-3 0  9999
2 34037  74.0508 215.7809 0054135 240.4869 119.0879 14.35028468892427
COSMOS 2251 DEB         
1 34040U 93036JB  26088.18294439  .00002836  00000+0  22177-2 0  9995
2 34040  73.9559 249.8954 0339151 182.3935 177.5579 13.68853331850561
COSMOS 2251 DEB         
1 34045U 93036JG  26088.19224506  .00000222  00000+0  88388-4 0  9994
2 34045  74.0364 116.0458 0026429 178.9079 247.8749 14.34132033895592
COSMOS 2251 DEB         
1 34046U 93036JH  26088.20552177  .00006171  00000+0  16209-2 0  9995
2 34046  74.0387 171.5067 0078038 230.6736 161.2779 14.47540794893668
COSMOS 2251 DEB         
1 34050U 93036JM  26088.03763836  .00001578  00000+0  95001-3 0  9991
2 34050  74.0882 187.6489 0217373 226.8986 317.2636 13.96511262869153
COSMOS 2251 DEB         
1 34053U 93036JQ  26088.23062118  .00000414  00000+0  39721-3 0  9996
2 34053  73.8424  70.5209 0424637 201.6739 156.5922 13.49302568841208
COSMOS 2251 DEB         
1 34056U 93036JT  26088.21041969  .00003335  00000+0  14229-2 0  9998
2 34056  74.0573 245.8594 0124413 268.5540 267.7967 14.21366747879232
COSMOS 2251 DEB         
1 34058U 93036JV  26088.23756968  .00000491  00000+0  46277-3 0  9993
2 34058  73.9366   5.4734 0377387 340.3062 144.9552 13.56221734845867
COSMOS 2251 DEB         
1 34059U 93036JW  26088.17389990  .00002601  00000+0  62652-3 0  9994
2 34059  74.0406 345.3634 0016274  36.8898 123.9245 14.53690843900057
COSMOS 2251 DEB         
1 34061U 93036JY  26088.19516693  .00001162  00000+0  37172-3 0  9991
2 34061  74.0380  66.5705 0019036 125.3564 250.0008 14.40603650897134
COSMOS 2251 DEB         
1 34062U 93036JZ  26088.00897985  .00012629  00000+0  15088-2 0  9999
2 34062  74.0267 288.3476 0068280 340.0856 171.6933 14.82572299901684
COSMOS 2251 DEB         
1 34064U 93036KB  26087.38064444  .00001675  00000+0  50946-3 0  9999
2 34064  74.0304  74.8184 0020158 123.8537  27.1568 14.42739555896652
COSMOS 2251 DEB         
1 34065U 93036KC  26087.35507947  .00000457  00000+0  15898-3 0  9991
2 34065  74.0346  63.5600 0015742 144.5140   6.1226 14.38181189897232
COSMOS 2251 DEB         
1 34070U 93036KH  26087.62827356  .00016979  00000+0  21962-2 0  9990
2 34070  73.9985 267.5756 0017186 358.5204  80.7710 14.80781468901768
COSMOS 2251 DEB         
1 34114U 93036KK  26087.78275232  .00011696  00000+0  24723-2 0  9995
2 34114  74.0579 202.5204 0043861 175.8024 338.0656 14.58769786893463
COSMOS 2251 DEB         
1 34115U 93036KL  26088.11966149  .00009774  00000+0  12396-2 0  9995
2 34115  74.0070  31.8534 0031484 192.0368 168.0060 14.81468111909865
