[{"OBJECT_NAME":"COSMOS 2251 DEB","OBJECT_ID":"1993-036HY","EPOCH":"2026-03-29T01:29:50.783712","MEAN_MOTION":14.35028468,"ECCENTRICITY":0.0054135,"INCLINATION":74.0508,"RA_OF_ASC_NODE":215.7809,"ARG_OF_PERICENTER":240.4869,"MEAN_ANOMALY":119.0879,"EPHEMERIS_TYPE":0,"CLASSIFICATION_TYPE":"U","NORAD_CAT_ID":34037,"ELEMENT_SET_NO":999,"REV_AT_EPOCH":89242,"BSTAR":0.00055349,"MEAN_MOTION_DOT":1.577e-5,"MEAN_MOTION_DDOT":0},{"OBJECT_NAME":"COSMOS 2251 DEB","OBJECT_ID":"1993-036JB","EPOCH":"2026-03-29T04:23:26.395296","MEAN_MOTION":13.68853331,"ECCENTRICITY":0.0339151,"INCLINATION":73.9559,"RA_OF_ASC_NODE":249.8954,"ARG_OF_PERICENTER":182.3935,"MEAN_ANOMALY":177.5579,"EPHEMERIS_TYPE":0,"CLASSIFICATION_TYPE":"U","NORAD_CAT_ID":34040,"ELEMENT_SET_NO":999,"REV_AT_EPOCH":85056,"BSTAR":0.0022177,"MEAN_MOTION_DOT":2.836e-5,"MEAN_MOTION_DDOT":0},{"OBJECT_NAME":"COSMOS 2251 DEB","OBJECT_ID":"1993-036JG","EPOCH":"2026-03-29T04:36:49.973184","MEAN_MOTION":14.34132033,"ECCENTRICITY":0.0026429,"INCLINATION":74.0364,"RA_OF_ASC_NODE":116.0458,"ARG_OF_PERICENTER":178.9079,"MEAN_ANOMALY":247.8749,"EPHEMERIS_TYPE":0,"CLASSIFICATION_TYPE":"U","NORAD_CAT_ID":34045,"ELEMENT_SET_NO":999,"REV_AT_EPOCH":89559,"BSTAR":8.8388e-5,"MEAN_MOTION_DOT":2.22e-6,"MEAN_MOTION_DDOT":0},{"OBJECT_NAME":"COSMOS 2251 DEB","OBJECT_ID":"1993-036JH","EPOCH":"2026-03-29T04:55:57.080928","MEAN_MOTION":14.47540794,"ECCENTRICITY":0.0078038,"INCLINATION":74.0387,"RA_OF_ASC_NODE":171.5067,"ARG_OF_PERICENTER":230.6736,"MEAN_ANOMALY":161.2779,"EPHEMERIS_TYPE":0,"CLASSIFICATION_TYPE":"U","NORAD_CAT_ID":34046,"ELEMENT_SET_NO":999,"REV_AT_EPOCH":89366,"BSTAR":0.0016209,"MEAN_MOTION_DOT":6.171e-5,"MEAN_MOTION_DDOT":0},{"OBJECT_NAME":"COSMOS 2251 DEB","OBJECT_ID":"1993-036JM","EPOCH":"2026-03-29T00:54:11.954304","MEAN_MOTION":13.96511262,"ECCENTRICITY":0.0217373,"INCLINATION":74.0882,"RA_OF_ASC_NODE":187.6489,"ARG_OF_PERICENTER":226.8986,"MEAN_ANOMALY":317.2636,"EPHEMERIS_TYPE":0,"CLASSIFICATION_TYPE":"U","NORAD_CAT_ID":34050,"ELEMENT_SET_NO":999,"REV_AT_EPOCH":86915,"BSTAR":0.00095001,"MEAN_MOTION_DOT":1.578e-5,"MEAN_MOTION_DDOT":0},{"OBJECT_NAME":"COSMOS 2251 DEB","OBJECT_ID":"1993-036JQ","EPOCH":"2026-03-29T05:32:05.669952","MEAN_MOTION":13.49302568,"ECCENTRICITY":0.0424637,"INCLINATION":73.8424,"RA_OF_ASC_NODE":70.5209,"ARG_OF_PERICENTER":201.6739,"MEAN_ANOMALY":156.5922,"EPHEMERIS_TYPE":0,"CLASSIFICATION_TYPE":"U","NORAD_CAT_ID":34053,"ELEMENT_SET_NO":999,"REV_AT_EPOCH":84120,"BSTAR":0.00039721,"MEAN_MOTION_DOT":4.14e-6,"MEAN_MOTION_DDOT":0},{"OBJECT_NAME":"COSMOS 2251 DEB","OBJECT_ID":"1993-036JT","EPOCH":"2026-03-29T05:03:00.261216","MEAN_MOTION":14.21366747,"ECCENTRICITY":0.0124413,"INCLINATION":74.0573,"RA_OF_ASC_NODE":245.8594,"ARG_OF_PERICENTER":268.554,"MEAN_ANOMALY":267.7967,"EPHEMERIS_TYPE":0,"CLASSIFICATION_TYPE":"U","NORAD_CAT_ID":34056,"ELEMENT_SET_NO":999,"REV_AT_EPOCH":87923,"BSTAR":0.0014229,"MEAN_MOTION_DOT":3.335e-5,"MEAN_MOTION_DDOT":0},{"OBJECT_NAME":"COSMOS 2251 DEB","OBJECT_ID":"1993-036JV","EPOCH":"2026-03-29T05:42:06.020352","MEAN_MOTION":13.56221734,"ECCENTRICITY":0.0377387,"INCLINATION":73.9366,"RA_OF_ASC_NODE":5.4734,"ARG_OF_PERICENTER":340.3062,"MEAN_ANOMALY":144.9552,"EPHEMERIS_TYPE":0,"CLASSIFICATION_TYPE":"U","NORAD_CAT_ID":34058,"ELEMENT_SET_NO":999,"REV_AT_EPOCH":84586,"BSTAR":0.00046277,"MEAN_MOTION_DOT":4.91e-6,"MEAN_MOTION_DDOT":0},{"OBJECT_NAME":"COSMOS 2251 DEB","OBJECT_ID":"1993-036JW","EPOCH":"2026-03-29T04:10:24.951360","MEAN_MOTION":14.53690843,"ECCENTRICITY":0.0016274,"INCLINATION":74.0406,"RA_OF_ASC_NODE":345.3634,"ARG_OF_PERICENTER":36.8898,"MEAN_ANOMALY":123.9245,"EPHEMERIS_TYPE":0,"CLASSIFICATION_TYPE":"U","NORAD_CAT_ID":34059,"ELEMENT_SET_NO":999,"REV_AT_EPOCH":90005,"BSTAR":0.00062652,"MEAN_MOTION_DOT":2.601e-5,"MEAN_MOTION_DDOT":0},{"OBJECT_NAME":"COSMOS 2251 DEB","OBJECT_ID":"1993-036JY","EPOCH":"2026-03-29T04:41:02.422752","MEAN_MOTION":14.4060365,"ECCENTRICITY":0.0019036,"INCLINATION":74.038,"RA_OF_ASC_NODE":66.5705,"ARG_OF_PERICENTER":125.3564,"MEAN_ANOMALY":250.0008,"EPHEMERIS_TYPE":0,"CLASSIFICATION_TYPE":"U","NORAD_CAT_ID":34061,"ELEMENT_SET_NO":999,"REV_AT_EPOCH":89713,"BSTAR":0.00037172,"MEAN_MOTION_DOT":1.162e-5,"MEAN_MOTION_DDOT":0},{"OBJECT_NAME":"COSMOS 2251 DEB","OBJECT_ID":"1993-036JZ","EPOCH":"2026-03-29T00:12:55.859040","MEAN_MOTION":14.82572299,"ECCENTRICITY":0.006828,"INCLINATION":74.0267,"RA_OF_ASC_NODE":288.3476,"ARG_OF_PERICENTER":340.0856,"MEAN_ANOMALY":171.6933,"EPHEMERIS_TYPE":0,"CLASSIFICATION_TYPE":"U","NORAD_CAT_ID":34062,"ELEMENT_SET_NO":999,"REV_AT_EPOCH":90168,"BSTAR":0.0015088,"MEAN_MOTION_DOT":0.00012629,"MEAN_MOTION_DDOT":0},{"OBJECT_NAME":"COSMOS 2251 DEB","OBJECT_ID":"1993-036KB","EPOCH":"2026-03-28T09:08:07.679616","MEAN_MOTION":14.42739555,"ECCENTRICITY":0.00201585,"INCLINATION":74.0304,"RA_OF_ASC_NODE":74.8184,"ARG_OF_PERICENTER":123.8537,"MEAN_ANOMALY":27.1568,"EPHEMERIS_TYPE":0,"CLASSIFICATION_TYPE":"U","NORAD_CAT_ID":34064,"ELEMENT_SET_NO":999,"REV_AT_EPOCH":89665,"BSTAR":0.00050946284,"MEAN_MOTION_DOT":1.675e-5,"MEAN_MOTION_DDOT":0},{"OBJECT_NAME":"COSMOS 2251 DEB","OBJECT_ID":"1993-036KC","EPOCH":"2026-03-28T08:31:18.866208","MEAN_MOTION":14.38181189,"ECCENTRICITY":0.00157426,"INCLINATION":74.0346,"RA_OF_ASC_NODE":63.56,"ARG_OF_PERICENTER":144.514,"MEAN_ANOMALY":6.1226,"EPHEMERIS_TYPE":0,"CLASSIFICATION_TYPE":"U","NORAD_CAT_ID":34065,"ELEMENT_SET_NO":999,"REV_AT_EPOCH":89723,"BSTAR":0.00015898452,"MEAN_MOTION_DOT":4.57e-6,"MEAN_MOTION_DDOT":0},{"OBJECT_NAME":"COSMOS 2251 DEB","OBJECT_ID":"1993-036KH","EPOCH":"2026-03-28T15:04:42.835584","MEAN_MOTION":14.80781468,"ECCENTRICITY":0.0017186,"INCLINATION":73.9985,"RA_OF_ASC_NODE":267.5756,"ARG_OF_PERICENTER":358.5204,"MEAN_ANOMALY":80.771,"EPHEMERIS_TYPE":0,"CLASSIFICATION_TYPE":"U","NORAD_CAT_ID":34070,"ELEMENT_SET_NO":999,"REV_AT_EPOCH":90176,"BSTAR":0.0021962,"MEAN_MOTION_DOT":0.00016979,"MEAN_MOTION_DDOT":0},{"OBJECT_NAME":"COSMOS 2251 DEB","OBJECT_ID":"1993-036KK","EPOCH":"2026-03-28T18:47:09.800448","MEAN_MOTION":14.58769786,"ECCENTRICITY":0.00438613,"INCLINATION":74.0579,"RA_OF_ASC_NODE":202.5204,"ARG_OF_PERICENTER":175.8024,"MEAN_ANOMALY":338.0656,"EPHEMERIS_TYPE":0,"CLASSIFICATION_TYPE":"U","NORAD_CAT_ID":34114,"ELEMENT_SET_NO":999,"REV_AT_EPOCH":89346,"BSTAR":0.0024722879,"MEAN_MOTION_DOT":0.00011696,"MEAN_MOTION_DDOT":0},{"OBJECT_NAME":"COSMOS 2251 DEB","OBJECT_ID":"1993-036KL","EPOCH":"2026-03-29T02:52:18.752736","MEAN_MOTION":14.81468111,"ECCENTRICITY":0.0031484,"INCLINATION":74.007,"RA_OF_ASC_NODE":31.8534,"ARG_OF_PERICENTER":192.0368,"MEAN_ANOMALY":168.006,"EPHEMERIS_TYPE":0,"CLASSIFICATION_TYPE":"U","NORAD_CAT_ID":34115,"ELEMENT_SET_NO":999,"REV_AT_EPOCH":90986,"BSTAR":0.0012396,"MEAN_MOTION_DOT":9.774e-5,"MEAN_MOTION_DDOT":0}]
